NORAD_CAT_ID,OBJECT_NAME,OBJECT_TYPE,EPOCH,MEAN_MOTION,ECCENTRICITY,INCLINATION,RA_OF_ASC_NODE,ARG_OF_PERICENTER,MEAN_ANOMALY,BSTAR,MEAN_MOTION_DOT,MEAN_MOTION_DDOT,TLE_LINE0,TLE_LINE1,TLE_LINE2,SEMIMAJOR_AXIS,PERIOD,APOGEE,PERIGEE,DECAYED
50192.0,STARLINK-3259,PAYLOAD,2022-02-07 22:00:00,15.73233038,0.0002973,53.217,111.2342,18.4165,155.9429,9.7619e-05,0.00013121,0.0,0 STARLINK-3259,1 50192U 21125AN  22038.91667824  .00013121  00000-0  97619-4 0  9990,2 50192  53.2170 111.2342 0002973  18.4165 155.9429 15.73233038  3695,6727.801,91.531,351.666,347.666,0.0
50192.0,STARLINK-3259,PAYLOAD,2022-02-08 14:00:01,15.7321797,0.0003197,53.2175,107.9365,14.7176,337.5806,3.9896e-05,4.985e-05,0.0,0 STARLINK-3259,1 50192U 21125AN  22039.58334491  .00004985  00000-0  39896-4 0  9996,2 50192  53.2175 107.9365 0003197  14.7176 337.5806 15.73217970  3703,6727.844,91.532,351.86,347.55800000000005,0.0
50192.0,STARLINK-3259,PAYLOAD,2022-02-08 22:00:01,15.73192487,0.0003003,53.2174,106.2852,12.545,68.7856,0.00019194,0.00026396,0.0,0 STARLINK-3259,1 50192U 21125AN  22039.91668981  .00026396  00000-0  19194-3 0  9995,2 50192  53.2174 106.2852 0003003  12.5450  68.7856 15.73192487  8463,6727.917,91.534,351.802,347.761,0.0
50192.0,STARLINK-3259,PAYLOAD,2022-02-09 12:54:12,15.73192492,0.0002691,53.218,103.2125,14.214,345.8955,-5.8237e-05,-8.786e-05,0.0,0 STARLINK-3259,1 50192U 21125AN  22040.53763907 -.00008786  00000-0 -58237-4 0  9996,2 50192  53.2180 103.2125 0002691  14.2140 345.8955 15.73192492 11657,6727.917,91.534,351.592,347.971,0.0
50192.0,STARLINK-3259,PAYLOAD,2022-02-09 14:00:01,15.73156838,0.000327,53.2173,102.9884,10.1938,248.9562,0.00058505,0.00082157,0.0,0 STARLINK-3259,1 50192U 21125AN  22040.58334491  .00082157  00000-0  58505-3 0  9992,2 50192  53.2173 102.9884 0003270  10.1938 248.9562 15.73156838  8579,6728.018,91.536,352.083,347.68300000000005,0.0
50192.0,STARLINK-3259,PAYLOAD,2022-02-10 06:00:00,15.73212269,0.0003163,53.2175,99.6875,17.0066,59.9999,-0.00010314,-0.00015084,0.0,0 STARLINK-3259,1 50192U 21125AN  22041.25001157 -.00015084  00000-0 -10314-3 0  9990,2 50192  53.2175  99.6875 0003163  17.0066  59.9999 15.73212269  8678,6727.86,91.532,351.853,347.597,0.0
50192.0,STARLINK-3259,PAYLOAD,2022-02-10 11:46:23,15.73215823,0.0003056,53.2176,98.4956,17.2078,342.9046,9.2723e-05,0.00012421,0.0,0 STARLINK-3259,1 50192U 21125AN  22041.49055483  .00012421  00000-0  92723-4 0  9992,2 50192  53.2176  98.4956 0003056  17.2078 342.9046 15.73215823 11808,6727.85,91.532,351.771,347.659,0.0
50192.0,STARLINK-3259,PAYLOAD,2022-02-10 20:00:01,15.73276965,0.0003353,53.2175,96.8015,16.2755,126.4306,-0.00074296,-0.00103994,0.0,0 STARLINK-3259,1 50192U 21125AN  22041.83335648 -.00103994  00000-0 -74296-3 0  9996,2 50192  53.2175  96.8015 0003353  16.2755 126.4306 15.73276965  8765,6727.676,91.529,351.797,347.285,0.0
50192.0,STARLINK-3259,PAYLOAD,2022-02-10 22:00:00,15.73243768,0.0003273999999999,53.2176,96.3887,16.2059,238.6899,-0.00039497,-0.0005581,0.0,0 STARLINK-3259,1 50192U 21125AN  22041.91667824 -.00055810  00000-0 -39497-3 0  9996,2 50192  53.2176  96.3887 0003274  16.2059 238.6899 15.73243768  3681,6727.77,91.531,351.838,347.43300000000005,0.0
50192.0,STARLINK-3259,PAYLOAD,2022-02-11 06:00:00,15.73252921,0.0003251,53.2174,94.7396,14.5255,329.3146,-0.00040294,-0.00056938,0.0,0 STARLINK-3259,1 50192U 21125AN  22042.25001157 -.00056938  00000-0 -40294-3 0  9994,2 50192  53.2174  94.7396 0003251  14.5255 329.3146 15.73252921  8836,6727.744000000002,91.53,351.796,347.422,0.0
50192.0,STARLINK-3259,PAYLOAD,2022-02-11 14:00:01,15.73200478,0.0003489,53.2171,93.0919,12.2635,60.5149,0.00085963,0.00121815,0.0,0 STARLINK-3259,1 50192U 21125AN  22042.58334491  .00121815  00000-0  85963-3 0  9997,2 50192  53.2171  93.0919 0003489  12.2635  60.5149 15.73200478  3704,6727.894,91.533,352.106,347.411,0.0
50192.0,STARLINK-3259,PAYLOAD,2022-02-11 22:00:01,15.73278108,0.0003265,53.2171,91.4403,11.6655,150.1459,-0.00045562,-0.00064314,0.0,0 STARLINK-3259,1 50192U 21125AN  22042.91668981 -.00064314  00000-0 -45562-3 0  9991,2 50192  53.2171  91.4403 0003265  11.6655 150.1459 15.73278108  8947,6727.672,91.529,351.7340000000001,347.341,0.0
50192.0,STARLINK-3259,PAYLOAD,2022-02-12 06:00:00,15.73241382,0.0003284,53.2174,89.7913,12.1368,238.578,-0.0010372,-0.00144032,0.0,0 STARLINK-3259,1 50192U 21125AN  22043.25001157 -.00144032  00000-0 -10372-2 0  9991,2 50192  53.2174  89.7913 0003284  12.1368 238.5780 15.73241382  8991,6727.776999999999,91.531,351.852,347.43300000000005,0.0
50192.0,STARLINK-3259,PAYLOAD,2022-02-12 14:00:01,15.73128496,0.0003555,53.2173,88.1434,9.3882,330.2889,6.5594e-05,8.567e-05,0.0,0 STARLINK-3259,1 50192U 21125AN  22043.58334491  .00008567  00000-0  65594-4 0  9995,2 50192  53.2173  88.1434 0003555   9.3882 330.2889 15.73128496  3705,6728.099,91.537,352.356,347.57199999999995,0.0
50192.0,STARLINK-3259,PAYLOAD,2022-02-12 22:00:00,15.73204051,0.0003475,53.2176,86.4721,17.5814,50.7117,7.0701e-06,3.69e-06,0.0,0 STARLINK-3259,1 50192U 21125AN  22043.91667824  .00000369  00000-0  70701-5 0  9990,2 50192  53.2176  86.4721 0003475  17.5814  50.7117 15.73204051  9093,6727.884,91.533,352.087,347.411,0.0
50192.0,STARLINK-3259,PAYLOAD,2022-02-13 06:00:00,15.73205578,0.0003382,53.2172,84.8433,12.033,145.4448,-0.00011407,-0.0001661,0.0,0 STARLINK-3259,1 50192U 21125AN  22044.25001157 -.00016610  00000-0 -11407-3 0  9993,2 50192  53.2172  84.8433 0003382  12.0330 145.4448 15.73205578  9152,6727.879,91.533,352.02,347.469,0.0
50192.0,STARLINK-3259,PAYLOAD,2022-02-13 14:00:01,15.73174431,0.0003591,53.2166,83.1953,10.558,235.8418,0.00066701,0.00093962,0.0,0 STARLINK-3259,1 50192U 21125AN  22044.58334491  .00093962  00000-0  66701-3 0  9999,2 50192  53.2166  83.1953 0003591  10.5580 235.8418 15.73174431  3705,6727.968000000003,91.535,352.249,347.417,0.0
50192.0,STARLINK-3259,PAYLOAD,2022-02-13 22:00:00,15.73236857,0.0003315,53.2165,81.5437,10.9452,324.3936,-0.00037241,-0.00052662,0.0,0 STARLINK-3259,1 50192U 21125AN  22044.91667824 -.00052662  00000-0 -37241-3 0  9996,2 50192  53.2165  81.5437 0003315  10.9452 324.3936 15.73236857  9255,6727.79,91.531,351.885,347.425,0.0
50192.0,STARLINK-3259,PAYLOAD,2022-02-14 14:00:01,15.73172859,0.0003661,53.2166,78.2467,12.6991,140.4848,-1.5631e-05,-2.815e-05,0.0,0 STARLINK-3259,1 50192U 21125AN  22045.58334491 -.00002815  00000-0 -15631-4 0  9996,2 50192  53.2166  78.2467 0003661  12.6991 140.4848 15.73172859  3695,6727.973000000001,91.535,352.301,347.374,0.0
50192.0,STARLINK-3259,PAYLOAD,2022-02-14 20:00:01,15.731466199999998,0.0003483,53.2168,77.008,11.5118,118.3493,-4.144100000000001e-05,-6.423e-05,0.0,0 STARLINK-3259,1 50192U 21125AN  22045.83334491 -.00006423  00000-0 -41441-4 0  9991,2 50192  53.2168  77.0080 0003483  11.5118 118.3493 15.73146620  9396,6728.047,91.536,352.256,347.569,0.0
50192.0,STARLINK-3259,PAYLOAD,2022-02-15 06:00:00,15.73181688,0.0003566,53.2164,74.9469,13.4186,317.5253,5.5604e-05,7.183e-05,0.0,0 STARLINK-3259,1 50192U 21125AN  22046.25001157  .00007183  00000-0  55604-4 0  9996,2 50192  53.2164  74.9469 0003566  13.4186 317.5253 15.73181688  9465,6727.946999999999,91.534,352.212,347.413,0.0
50192.0,STARLINK-3259,PAYLOAD,2022-02-15 14:00:01,15.73174246,0.0003771,53.2157,73.2983,13.5581,46.2789,0.00040835,0.00057031,0.0,0 STARLINK-3259,1 50192U 21125AN  22046.58334491  .00057031  00000-0  40835-3 0  9998,2 50192  53.2157  73.2983 0003771  13.5581  46.2789 15.73174246  3666,6727.969,91.535,352.371,347.296,0.0
50192.0,STARLINK-3259,PAYLOAD,2022-02-15 22:00:01,15.73185868,0.0003456,53.2158,71.6467,14.6022,134.2297,0.00055752,0.00078326,0.0,0 STARLINK-3259,1 50192U 21125AN  22046.91668981  .00078326  00000-0  55752-3 0  9993,2 50192  53.2158  71.6467 0003456  14.6022 134.2297 15.73185868  3684,6727.935,91.534,352.126,347.475,0.0
50192.0,STARLINK-3259,PAYLOAD,2022-02-16 06:00:00,15.73261179,0.0003587,53.2163,69.9978,14.9597,222.7501,-0.00067293,-0.00094299,0.0,0 STARLINK-3259,1 50192U 21125AN  22047.25001157 -.00094299  00000-0 -67293-3 0  9999,2 50192  53.2163  69.9978 0003587  14.9597 222.7501 15.73261179  9623,6727.721,91.53,351.999,347.173,0.0
50192.0,STARLINK-3259,PAYLOAD,2022-02-16 14:00:01,15.73205047,0.0003768,53.216,68.3494,12.1172,314.5627,0.00038997,0.00054492,0.0,0 STARLINK-3259,1 50192U 21125AN  22047.58334491  .00054492  00000-0  38997-3 0  9993,2 50192  53.2160  68.3494 0003768  12.1172 314.5627 15.73205047  9672,6727.880999999999,91.533,352.281,347.211,0.0
50192.0,STARLINK-3259,PAYLOAD,2022-02-16 22:00:00,15.73243191,0.0003514,53.216,66.6976,13.0526,42.5904,-8.0644e-05,-0.00011951,0.0,0 STARLINK-3259,1 50192U 21125AN  22047.91667824 -.00011951  00000-0 -80644-4 0  9991,2 50192  53.2160  66.6976 0003514  13.0526  42.5904 15.73243191  3661,6727.772,91.531,352.001,347.273,0.0
50192.0,STARLINK-3259,PAYLOAD,2022-02-17 06:00:00,15.73220772,0.0003656,53.2158,65.0494,12.4847,132.1388,0.00014366,0.00019609,0.0,0 STARLINK-3259,1 50192U 21125AN  22048.25001157  .00019609  00000-0  14366-3 0  9993,2 50192  53.2158  65.0494 0003656  12.4847 132.1388 15.73220772  9772,6727.8359999999975,91.532,352.161,347.241,0.0
50192.0,STARLINK-3259,PAYLOAD,2022-02-17 14:00:01,15.72748196,0.0003857,53.2163,63.3847,13.6975,219.9648,0.0043799999999999,0.00651516,0.0,0 STARLINK-3259,1 50192U 21125AN  22048.58334491  .00651516  00000-0  43800-2 0  9992,2 50192  53.2163  63.3847 0003857  13.6975 219.9648 15.72748196  9833,6729.184,91.559,353.644,348.45300000000015,0.0
50192.0,STARLINK-3259,PAYLOAD,2022-02-17 22:00:00,15.73204081,0.0003548,53.2172,61.728,13.7593,308.5484,1.0384e-06,-4.78e-06,0.0,0 STARLINK-3259,1 50192U 21125AN  22048.91667824 -.00000478  00000-0  10384-5 0  9998,2 50192  53.2172  61.7280 0003548  13.7593 308.5484 15.73204081  9889,6727.884,91.533,352.136,347.361,0.0
